{"type": "FeatureCollection", "features": [ {"type": "Feature", "properties": {"norad_id": 67021, "name": "STARLINK-36184", "group": "last-30-days", "lat": 42.076136756568324, "lon": -46.76984245351992, "alt_km": 313.06693722558884, "timestamp": "2025-12-22T23:36:19.413446+00:00", "meta": {"OBJECT_NAME": "STARLINK-36184", "OBJECT_ID": "2025-293U", "EPOCH": "2025-12-22T20:00:01.999008", "MEAN_MOTION": 15.86017089, "ECCENTRICITY": 0.0003819, "INCLINATION": 69.993, "RA_OF_ASC_NODE": 294.4564, "ARG_OF_PERICENTER": 260.0415, "MEAN_ANOMALY": 8.3216, "EPHEMERIS_TYPE": 0, "CLASSIFICATION_TYPE": "U", "NORAD_CAT_ID": 67021, "ELEMENT_SET_NO": 999, "REV_AT_EPOCH": 184, "BSTAR": -0.0076261, "MEAN_MOTION_DOT": -0.01646657, "MEAN_MOTION_DDOT": 0}, "tle": {"line1": "1 67021U 25293U   25356.83335647 -.01646657  00000+0 -76261-2 0  9997", "line2": "2 67021  69.9930 294.4564 0003819 260.0415   8.3216 15.86017089  1845"}}, "geometry": {"type": "Point", "coordinates": [-46.76984245351992, 42.076136756568324]}}, {"type": "Feature", "properties": {"norad_id": 67022, "name": "STARLINK-36209", "group": "last-30-days", "lat": 44.767710567671486, "lon": -44.79067471121429, "alt_km": 312.79805428068903, "timestamp": "2025-12-22T23:36:19.413458+00:00", "meta": {"OBJECT_NAME": "STARLINK-36209", "OBJECT_ID": "2025-293V", "EPOCH": "2025-12-22T20:00:01.999008", "MEAN_MOTION": 15.85976258, "ECCENTRICITY": 0.0003887, "INCLINATION": 69.9927, "RA_OF_ASC_NODE": 294.4528, "ARG_OF_PERICENTER": 263.057, "MEAN_ANOMALY": 8.3743, "EPHEMERIS_TYPE": 0, "CLASSIFICATION_TYPE": "U", "NORAD_CAT_ID": 67022, "ELEMENT_SET_NO": 999, "REV_AT_EPOCH": 184, "BSTAR": -0.0075852, "MEAN_MOTION_DOT": -0.01636172, "MEAN_MOTION_DDOT": 0}, "tle": {"line1": "1 67022U 25293V   25356.83335647 -.01636172  00000+0 -75852-2 0  9994", "line2": "2 67022  69.9927 294.4528 0003887 263.0570   8.3743 15.85976258  1848"}}, "geometry": {"type": "Point", "coordinates": [-44.79067471121429, 44.767710567671486]}}, {"type": "Feature", "properties": {"norad_id": 67023, "name": "STARLINK-36191", "group": "last-30-days", "lat": 46.99239868907005, "lon": -42.98792331615817, "alt_km": 312.61184465305723, "timestamp": "2025-12-22T23:36:19.413470+00:00", "meta": {"OBJECT_NAME": "STARLINK-36191", "OBJECT_ID": "2025-293W", "EPOCH": "2025-12-22T20:00:01.999008", "MEAN_MOTION": 15.85961003, "ECCENTRICITY": 0.0003828, "INCLINATION": 69.9926, "RA_OF_ASC_NODE": 294.4492, "ARG_OF_PERICENTER": 260.1673, "MEAN_ANOMALY": 13.8283, "EPHEMERIS_TYPE": 0, "CLASSIFICATION_TYPE": "U", "NORAD_CAT_ID": 67023, "ELEMENT_SET_NO": 999, "REV_AT_EPOCH": 173, "BSTAR": -0.007631, "MEAN_MOTION_DOT": -0.01643657, "MEAN_MOTION_DDOT": 0}, "tle": {"line1": "1 67023U 25293W   25356.83335647 -.01643657  00000+0 -76310-2 0  9991", "line2": "2 67023  69.9926 294.4492 0003828 260.1673  13.8283 15.85961003  1735"}}, "geometry": {"type": "Point", "coordinates": [-42.98792331615817, 46.99239868907005]}}, {"type": "Feature", "properties": {"norad_id": 67024, "name": "STARLINK-36192", "group": "last-30-days", "lat": 49.43680043491553, "lon": -40.79124036766222, "alt_km": 312.3236178727202, "timestamp": "2025-12-22T23:36:19.413480+00:00", "meta": {"OBJECT_NAME": "STARLINK-36192", "OBJECT_ID": "2025-293X", "EPOCH": "2025-12-22T14:00:01.999872", "MEAN_MOTION": 15.86812015, "ECCENTRICITY": 0.00038626, "INCLINATION": 69.9926, "RA_OF_ASC_NODE": 295.1666, "ARG_OF_PERICENTER": 262.5456, "MEAN_ANOMALY": 27.0497, "EPHEMERIS_TYPE": 0, "CLASSIFICATION_TYPE": "U", "NORAD_CAT_ID": 67024, "ELEMENT_SET_NO": 999, "REV_AT_EPOCH": 180, "BSTAR": -0.0073067388, "MEAN_MOTION_DOT": -0.0164149, "MEAN_MOTION_DDOT": 0}, "tle": {"line1": "1 67024U 25293X   25356.58335648 -.01641490  00000+0 -73067-2 0  9994", "line2": "2 67024  69.9926 295.1666 0003862 262.5456  27.0497 15.86812015  1801"}}, "geometry": {"type": "Point", "coordinates": [-40.79124036766222, 49.43680043491553]}}, {"type": "Feature", "properties": {"norad_id": 67025, "name": "STARLINK-36178", "group": "last-30-days", "lat": 51.439778954845714, "lon": -38.788654877109536, "alt_km": 312.2265310996718, "timestamp": "2025-12-22T23:36:19.413489+00:00", "meta": {"OBJECT_NAME": "STARLINK-36178", "OBJECT_ID": "2025-293Y", "EPOCH": "2025-12-22T20:00:01.999008", "MEAN_MOTION": 15.85910658, "ECCENTRICITY": 0.0003907, "INCLINATION": 69.9929, "RA_OF_ASC_NODE": 294.4433, "ARG_OF_PERICENTER": 261.8949, "MEAN_ANOMALY": 17.3454, "EPHEMERIS_TYPE": 0, "CLASSIFICATION_TYPE": "U", "NORAD_CAT_ID": 67025, "ELEMENT_SET_NO": 999, "REV_AT_EPOCH": 184, "BSTAR": -0.0075881, "MEAN_MOTION_DOT": -0.01632155, "MEAN_MOTION_DDOT": 0}, "tle": {"line1": "1 67025U 25293Y   25356.83335647 -.01632155  00000+0 -75881-2 0  9996", "line2": "2 67025  69.9929 294.4433 0003907 261.8949  17.3454 15.85910658  1848"}}, "geometry": {"type": "Point", "coordinates": [-38.788654877109536, 51.439778954845714]}}, {"type": "Feature", "properties": {"norad_id": 67026, "name": "STARLINK-36176", "group": "last-30-days", "lat": 55.65945068904297, "lon": -33.76252088731913, "alt_km": 311.8349159866093, "timestamp": "2025-12-22T23:36:19.413499+00:00", "meta": {"OBJECT_NAME": "STARLINK-36176", "OBJECT_ID": "2025-293Z", "EPOCH": "2025-12-22T20:00:01.999008", "MEAN_MOTION": 15.85880574, "ECCENTRICITY": 0.000389, "INCLINATION": 69.9926, "RA_OF_ASC_NODE": 294.437, "ARG_OF_PERICENTER": 262.4184, "MEAN_ANOMALY": 22.0028, "EPHEMERIS_TYPE": 0, "CLASSIFICATION_TYPE": "U", "NORAD_CAT_ID": 67026, "ELEMENT_SET_NO": 999, "REV_AT_EPOCH": 184, "BSTAR": -0.0076718, "MEAN_MOTION_DOT": -0.01645734, "MEAN_MOTION_DDOT": 0}, "tle": {"line1": "1 67026U 25293Z   25356.83335647 -.01645734  00000+0 -76718-2 0  9994", "line2": "2 67026  69.9926 294.4370 0003890 262.4184  22.0028 15.85880574  1848"}}, "geometry": {"type": "Point", "coordinates": [-33.76252088731913, 55.65945068904297]}}, {"type": "Feature", "properties": {"norad_id": 67027, "name": "STARLINK-36171", "group": "last-30-days", "lat": 53.858453115420936, "lon": -36.06219700737003, "alt_km": 311.99309115216056, "timestamp": "2025-12-22T23:36:19.413511+00:00", "meta": {"OBJECT_NAME": "STARLINK-36171", "OBJECT_ID": "2025-293AA", "EPOCH": "2025-12-22T20:00:01.999008", "MEAN_MOTION": 15.85883986, "ECCENTRICITY": 0.0003899, "INCLINATION": 69.9924, "RA_OF_ASC_NODE": 294.4399, "ARG_OF_PERICENTER": 263.8019, "MEAN_ANOMALY": 18.3799, "EPHEMERIS_TYPE": 0, "CLASSIFICATION_TYPE": "U", "NORAD_CAT_ID": 67027, "ELEMENT_SET_NO": 999, "REV_AT_EPOCH": 184, "BSTAR": -0.007621, "MEAN_MOTION_DOT": -0.01636451, "MEAN_MOTION_DDOT": 0}, "tle": {"line1": "1 67027U 25293AA  25356.83335647 -.01636451  00000+0 -76210-2 0  9998", "line2": "2 67027  69.9924 294.4399 0003899 263.8019  18.3799 15.85883986  1842"}}, "geometry": {"type": "Point", "coordinates": [-36.06219700737003, 53.858453115420936]}}, {"type": "Feature", "properties": {"norad_id": 67028, "name": "STARLINK-36132", "group": "last-30-days", "lat": 59.660295523951625, "lon": -27.497056230107187, "alt_km": 311.5491009000352, "timestamp": "2025-12-22T23:36:19.413522+00:00", "meta": {"OBJECT_NAME": "STARLINK-36132", "OBJECT_ID": "2025-293AB", "EPOCH": "2025-12-22T20:00:01.999008", "MEAN_MOTION": 15.8583632, "ECCENTRICITY": 0.0003972, "INCLINATION": 69.9929, "RA_OF_ASC_NODE": 294.431, "ARG_OF_PERICENTER": 265.723, "MEAN_ANOMALY": 23.9305, "EPHEMERIS_TYPE": 0, "CLASSIFICATION_TYPE": "U", "NORAD_CAT_ID": 67028, "ELEMENT_SET_NO": 999, "REV_AT_EPOCH": 184, "BSTAR": -0.0076743, "MEAN_MOTION_DOT": -0.01643191, "MEAN_MOTION_DDOT": 0}, "tle": {"line1": "1 67028U 25293AB  25356.83335647 -.01643191  00000+0 -76743-2 0  9999", "line2": "2 67028  69.9929 294.4310 0003972 265.7230  23.9305 15.85836320  1844"}}, "geometry": {"type": "Point", "coordinates": [-27.497056230107187, 59.660295523951625]}}, {"type": "Feature", "properties": {"norad_id": 67029, "name": "STARLINK-36190", "group": "last-30-days", "lat": 57.5064456244196, "lon": -31.100711774302372, "alt_km": 311.6686374758683, "timestamp": "2025-12-22T23:36:19.413532+00:00", "meta": {"OBJECT_NAME": "STARLINK-36190", "OBJECT_ID": "2025-293AC", "EPOCH": "2025-12-22T20:00:01.999008", "MEAN_MOTION": 15.85862972, "ECCENTRICITY": 0.0003926, "INCLINATION": 69.993, "RA_OF_ASC_NODE": 294.4346, "ARG_OF_PERICENTER": 264.9116, "MEAN_ANOMALY": 21.8727, "EPHEMERIS_TYPE": 0, "CLASSIFICATION_TYPE": "U", "NORAD_CAT_ID": 67029, "ELEMENT_SET_NO": 999, "REV_AT_EPOCH": 184, "BSTAR": -0.0076525, "MEAN_MOTION_DOT": -0.01640924, "MEAN_MOTION_DDOT": 0}, "tle": {"line1": "1 67029U 25293AC  25356.83335647 -.01640924  00000+0 -76525-2 0  9999", "line2": "2 67029  69.9930 294.4346 0003926 264.9116  21.8727 15.85862972  1846"}}, "geometry": {"type": "Point", "coordinates": [-31.100711774302372, 57.5064456244196]}}, {"type": "Feature", "properties": {"norad_id": 67030, "name": "STARLINK-36138", "group": "last-30-days", "lat": 1.3488995535044135, "lon": 120.92046593404208, "alt_km": 327.9279493176364, "timestamp": "2025-12-22T23:36:19.413544+00:00", "meta": {"OBJECT_NAME": "STARLINK-36138", "OBJECT_ID": "2025-294A", "EPOCH": "2025-12-22T20:00:01.999008", "MEAN_MOTION": 15.81319252, "ECCENTRICITY": 0.0001372, "INCLINATION": 42.9997, "RA_OF_ASC_NODE": 120.392, "ARG_OF_PERICENTER": 275.6572, "MEAN_ANOMALY": 310.4507, "EPHEMERIS_TYPE": 0, "CLASSIFICATION_TYPE": "U", "NORAD_CAT_ID": 67030, "ELEMENT_SET_NO": 999, "REV_AT_EPOCH": 173, "BSTAR": -0.010629, "MEAN_MOTION_DOT": -0.01892235, "MEAN_MOTION_DDOT": 0}, "tle": {"line1": "1 67030U 25294A   25356.83335647 -.01892235  00000+0 -10629-1 0  9998", "line2": "2 67030  42.9997 120.3920 0001372 275.6572 310.4507 15.81319252  1730"}}, "geometry": {"type": "Point", "coordinates": [120.92046593404208, 1.3488995535044135]}}]}